{
  "type": "FeatureCollection",
  "features": [
    {
      "type": "Feature",
      "properties": {
        "norad_id": 66467,
        "name": "STARLINK-35682",
        "group": "last-30-days",
        "lat": -14.996767411914897,
        "lon": -48.336242104309505,
        "alt_km": 413.1975954514455,
        "timestamp": "2025-12-05T05:43:13.896109+00:00",
        "meta_object_name": "STARLINK-35682",
        "meta_object_id": "2025-262M",
        "meta_epoch": "2025-12-04T18:00:02.000160",
        "meta_mean_motion": 15.53912303,
        "meta_eccentricity": 0.0001592,
        "meta_inclination": 42.9997,
        "meta_ra_of_asc_node": 117.8227,
        "meta_arg_of_pericenter": 276.4315,
        "meta_mean_anomaly": 72.773,
        "meta_ephemeris_type": 0,
        "meta_classification_type": "U",
        "meta_norad_cat_id": 66467,
        "meta_element_set_no": 999,
        "meta_rev_at_epoch": 435,
        "meta_bstar": -0.036399,
        "meta_mean_motion_dot": -0.02136381,
        "meta_mean_motion_ddot": 0,
        "tle_line1": "1 66467U 25262M   25338.75002315 -.02136381  00000+0 -36399-1 0  9996",
        "tle_line2": "2 66467  42.9997 117.8227 0001592 276.4315  72.7730 15.53912303  4354"
      },
      "geometry": {
        "type": "Point",
        "coordinates": [
          -48.336242104309505,
          -14.996767411914897
        ]
      }
    },
    {
      "type": "Feature",
      "properties": {
        "norad_id": 66468,
        "name": "STARLINK-35331",
        "group": "last-30-days",
        "lat": -18.700303857956715,
        "lon": -43.758488691629104,
        "alt_km": 413.44784785790034,
        "timestamp": "2025-12-05T05:43:13.896119+00:00",
        "meta_object_name": "STARLINK-35331",
        "meta_object_id": "2025-262N",
        "meta_epoch": "2025-12-04T18:00:02.000160",
        "meta_mean_motion": 15.53914733,
        "meta_eccentricity": 0.0001685,
        "meta_inclination": 42.9998,
        "meta_ra_of_asc_node": 117.8082,
        "meta_arg_of_pericenter": 278.5449,
        "meta_mean_anomaly": 76.4077,
        "meta_ephemeris_type": 0,
        "meta_classification_type": "U",
        "meta_norad_cat_id": 66468,
        "meta_element_set_no": 999,
        "meta_rev_at_epoch": 435,
        "meta_bstar": -0.036427,
        "meta_mean_motion_dot": -0.02138104,
        "meta_mean_motion_ddot": 0,
        "tle_line1": "1 66468U 25262N   25338.75002315 -.02138104  00000+0 -36427-1 0  9994",
        "tle_line2": "2 66468  42.9998 117.8082 0001685 278.5449  76.4077 15.53914733  4353"
      },
      "geometry": {
        "type": "Point",
        "coordinates": [
          -43.758488691629104,
          -18.700303857956715
        ]
      }
    },
    {
      "type": "Feature",
      "properties": {
        "norad_id": 66469,
        "name": "STARLINK-35451",
        "group": "last-30-days",
        "lat": -22.28539508324341,
        "lon": -38.98106856760397,
        "alt_km": 413.7100916514937,
        "timestamp": "2025-12-05T05:43:13.896129+00:00",
        "meta_object_name": "STARLINK-35451",
        "meta_object_id": "2025-262P",
        "meta_epoch": "2025-12-04T18:00:02.000160",
        "meta_mean_motion": 15.53907943,
        "meta_eccentricity": 0.0001768,
        "meta_inclination": 42.9993,
        "meta_ra_of_asc_node": 117.7931,
        "meta_arg_of_pericenter": 282.7019,
        "meta_mean_anomaly": 78.0053,
        "meta_ephemeris_type": 0,
        "meta_classification_type": "U",
        "meta_norad_cat_id": 66469,
        "meta_element_set_no": 999,
        "meta_rev_at_epoch": 435,
        "meta_bstar": -0.036317,
        "meta_mean_motion_dot": -0.02131963,
        "meta_mean_motion_ddot": 0,
        "tle_line1": "1 66469U 25262P   25338.75002315 -.02131963  00000+0 -36317-1 0  9999",
        "tle_line2": "2 66469  42.9993 117.7931 0001768 282.7019  78.0053 15.53907943  4350"
      },
      "geometry": {
        "type": "Point",
        "coordinates": [
          -38.98106856760397,
          -22.28539508324341
        ]
      }
    },
    {
      "type": "Feature",
      "properties": {
        "norad_id": 66470,
        "name": "STARLINK-35655",
        "group": "last-30-days",
        "lat": -19.91220008287304,
        "lon": -42.187324012963366,
        "alt_km": 413.43848071001685,
        "timestamp": "2025-12-05T05:43:13.896139+00:00",
        "meta_object_name": "STARLINK-35655",
        "meta_object_id": "2025-262Q",
        "meta_epoch": "2025-12-04T18:00:02.000160",
        "meta_mean_motion": 15.53913061,
        "meta_eccentricity": 0.0001616,
        "meta_inclination": 42.9995,
        "meta_ra_of_asc_node": 117.8032,
        "meta_arg_of_pericenter": 275.2897,
        "meta_mean_anomaly": 81.5825,
        "meta_ephemeris_type": 0,
        "meta_classification_type": "U",
        "meta_norad_cat_id": 66470,
        "meta_element_set_no": 999,
        "meta_rev_at_epoch": 435,
        "meta_bstar": -0.036396,
        "meta_mean_motion_dot": -0.02136329,
        "meta_mean_motion_ddot": 0,
        "tle_line1": "1 66470U 25262Q   25338.75002315 -.02136329  00000+0 -36396-1 0  9999",
        "tle_line2": "2 66470  42.9995 117.8032 0001616 275.2897  81.5825 15.53913061  4354"
      },
      "geometry": {
        "type": "Point",
        "coordinates": [
          -42.187324012963366,
          -19.91220008287304
        ]
      }
    },
    {
      "type": "Feature",
      "properties": {
        "norad_id": 66471,
        "name": "STARLINK-35569",
        "group": "last-30-days",
        "lat": -21.107219363063386,
        "lon": -40.595697944963156,
        "alt_km": 413.51111494097677,
        "timestamp": "2025-12-05T05:43:13.896151+00:00",
        "meta_object_name": "STARLINK-35569",
        "meta_object_id": "2025-262R",
        "meta_epoch": "2025-12-04T18:00:02.000160",
        "meta_mean_motion": 15.53915557,
        "meta_eccentricity": 0.0001613,
        "meta_inclination": 42.9992,
        "meta_ra_of_asc_node": 117.7982,
        "meta_arg_of_pericenter": 275.4299,
        "meta_mean_anomaly": 83.3583,
        "meta_ephemeris_type": 0,
        "meta_classification_type": "U",
        "meta_norad_cat_id": 66471,
        "meta_element_set_no": 999,
        "meta_rev_at_epoch": 435,
        "meta_bstar": -0.036488,
        "meta_mean_motion_dot": -0.0214129,
        "meta_mean_motion_ddot": 0,
        "tle_line1": "1 66471U 25262R   25338.75002315 -.02141290  00000+0 -36488-1 0  9995",
        "tle_line2": "2 66471  42.9992 117.7982 0001613 275.4299  83.3583 15.53915557  4353"
      },
      "geometry": {
        "type": "Point",
        "coordinates": [
          -40.595697944963156,
          -21.107219363063386
        ]
      }
    },
    {
      "type": "Feature",
      "properties": {
        "norad_id": 66472,
        "name": "STARLINK-35567",
        "group": "last-30-days",
        "lat": -23.454871794749337,
        "lon": -37.3275277500996,
        "alt_km": 413.63036337667654,
        "timestamp": "2025-12-05T05:43:13.896161+00:00",
        "meta_object_name": "STARLINK-35567",
        "meta_object_id": "2025-262S",
        "meta_epoch": "2025-12-04T18:00:02.000160",
        "meta_mean_motion": 15.5391015,
        "meta_eccentricity": 0.0001558,
        "meta_inclination": 42.9994,
        "meta_ra_of_asc_node": 117.7886,
        "meta_arg_of_pericenter": 276.2261,
        "meta_mean_anomaly": 86.3964,
        "meta_ephemeris_type": 0,
        "meta_classification_type": "U",
        "meta_norad_cat_id": 66472,
        "meta_element_set_no": 999,
        "meta_rev_at_epoch": 435,
        "meta_bstar": -0.036265,
        "meta_mean_motion_dot": -0.02129231,
        "meta_mean_motion_ddot": 0,
        "tle_line1": "1 66472U 25262S   25338.75002315 -.02129231  00000+0 -36265-1 0  9990",
        "tle_line2": "2 66472  42.9994 117.7886 0001558 276.2261  86.3964 15.53910150  4355"
      },
      "geometry": {
        "type": "Point",
        "coordinates": [
          -37.3275277500996,
          -23.454871794749337
        ]
      }
    },
    {
      "type": "Feature",
      "properties": {
        "norad_id": 66473,
        "name": "STARLINK-35568",
        "group": "last-30-days",
        "lat": -24.597937932231847,
        "lon": -35.65776937123224,
        "alt_km": 413.81110879681,
        "timestamp": "2025-12-05T05:43:13.896183+00:00",
        "meta_object_name": "STARLINK-35568",
        "meta_object_id": "2025-262T",
        "meta_epoch": "2025-12-04T18:00:02.000160",
        "meta_mean_motion": 15.53912007,
        "meta_eccentricity": 0.0001716,
        "meta_inclination": 42.9996,
        "meta_ra_of_asc_node": 117.7838,
        "meta_arg_of_pericenter": 282.7715,
        "meta_mean_anomaly": 81.7671,
        "meta_ephemeris_type": 0,
        "meta_classification_type": "U",
        "meta_norad_cat_id": 66473,
        "meta_element_set_no": 999,
        "meta_rev_at_epoch": 435,
        "meta_bstar": -0.036369,
        "meta_mean_motion_dot": -0.02134895,
        "meta_mean_motion_ddot": 0,
        "tle_line1": "1 66473U 25262T   25338.75002315 -.02134895  00000+0 -36369-1 0  9998",
        "tle_line2": "2 66473  42.9996 117.7838 0001716 282.7715  81.7671 15.53912007  4354"
      },
      "geometry": {
        "type": "Point",
        "coordinates": [
          -35.65776937123224,
          -24.597937932231847
        ]
      }
    }
  ]
}